NORAD_CAT_ID,OBJECT_NAME,OBJECT_TYPE,EPOCH,MEAN_MOTION,ECCENTRICITY,INCLINATION,RA_OF_ASC_NODE,ARG_OF_PERICENTER,MEAN_ANOMALY,BSTAR,MEAN_MOTION_DOT,MEAN_MOTION_DDOT,TLE_LINE0,TLE_LINE1,TLE_LINE2,SEMIMAJOR_AXIS,PERIOD,APOGEE,PERIGEE,DECAYED
53999.0,STARLINK-5079,PAYLOAD,2023-08-27 20:17:30,15.08841319,0.0001212,53.2179,45.8221,86.0028,274.1103,0.00012956,1.775e-05,0.0,0 STARLINK-5079,1 53999U 22125AM  23239.84549607  .00001775  00000-0  12956-3 0  9995,2 53999  53.2179  45.8221 0001212  86.0028 274.1103 15.08841319 49849,6917.876,95.437,540.58,538.903,0.0
53999.0,STARLINK-5079,PAYLOAD,2023-08-28 16:57:32,15.08836284,0.0001099,53.2181,41.9591,88.1444,271.9674,3.4666e-05,2.64e-06,0.0,0 STARLINK-5079,1 53999U 22125AM  23240.70662441  .00000264  00000-0  34666-4 0  9999,2 53999  53.2181  41.9591 0001099  88.1444 271.9674 15.08836284 50044,6917.892,95.438,540.517,538.996,0.0
53999.0,STARLINK-5079,PAYLOAD,2023-08-28 20:08:18,15.08843868,0.0001172,53.2184,41.3632,90.5177,269.5949,8.3606e-05,1.043e-05,0.0,0 STARLINK-5079,1 53999U 22125AM  23240.83909843  .00001043  00000-0  83606-4 0  9997,2 53999  53.2184  41.3632 0001172  90.5177 269.5949 15.08843868 49995,6917.869,95.437,540.544,538.923,0.0
53999.0,STARLINK-5079,PAYLOAD,2023-08-29 16:48:18,15.08846824,0.0001223,53.2171,37.4984,85.2513,274.8619,0.00017363,2.477e-05,0.0,0 STARLINK-5079,1 53999U 22125AM  23241.70021750  .00002477  00000-0  17363-3 0  9994,2 53999  53.2171  37.4984 0001223  85.2513 274.8619 15.08846824 50124,6917.86,95.437,540.571,538.878,0.0
53999.0,STARLINK-5079,PAYLOAD,2023-08-30 16:39:05,15.08848168,0.0001171,53.2176,33.0375,94.8434,265.2692,0.00016493,2.339e-05,0.0,0 STARLINK-5079,1 53999U 22125AM  23242.69381587  .00002339  00000-0  16493-3 0  9990,2 53999  53.2176  33.0375 0001171  94.8434 265.2692 15.08848168 50347,6917.855,95.437,540.531,538.91,0.0
53999.0,STARLINK-5079,PAYLOAD,2023-09-01 16:20:42,15.08796042,2.29e-05,53.2172,24.1226,316.6573,43.4401,0.00028869,4.305e-05,0.0,0 STARLINK-5079,1 53999U 22125AM  23244.68104203  .00004305  00000-0  28869-3 0  9994,2 53999  53.2172  24.1226 0000229 316.6573  43.4401 15.08796042 50641,6918.015,95.44,540.038,539.721,0.0
53999.0,STARLINK-5079,PAYLOAD,2023-09-02 09:49:55,15.08834888,0.0001357,53.2175,20.8471,84.8954,275.2193,-3.9115e-06,-3.5e-06,0.0,0 STARLINK-5079,1 53999U 22125AM  23245.40966511 -.00000350  00000-0 -39115-5 0  9999,2 53999  53.2175  20.8471 0001357  84.8954 275.2193 15.08834888 50755,6917.896,95.438,540.7,538.822,0.0
53999.0,STARLINK-5079,PAYLOAD,2023-09-02 13:00:41,15.08833295,0.0001396,53.2179,20.2521,86.2947,273.8205,7.4816e-05,9.03e-06,0.0,0 STARLINK-5079,1 53999U 22125AM  23245.54214902  .00000903  00000-0  74816-4 0  9992,2 53999  53.2179  20.2521 0001396  86.2947 273.8205 15.08833295 50704,6917.901,95.438,540.732,538.8,0.0
53999.0,STARLINK-5079,PAYLOAD,2023-09-02 19:22:13,15.08846793,0.0001436,53.217,19.0625,82.1746,277.9409,-8.6089e-05,-1.658e-05,0.0,0 STARLINK-5079,1 53999U 22125AM  23245.80709748 -.00001658  00000-0 -86089-4 0  9993,2 53999  53.2170  19.0625 0001436  82.1746 277.9409 15.08846793 50745,6917.86,95.437,540.718,538.731,0.0
53999.0,STARLINK-5079,PAYLOAD,2023-09-03 11:16:05,15.08844092,0.0001474,53.2178,16.0885,83.9077,276.2083,2.9145e-05,1.76e-06,0.0,0 STARLINK-5079,1 53999U 22125AM  23246.46950281  .00000176  00000-0  29145-4 0  9998,2 53999  53.2178  16.0885 0001474  83.9077 276.2083 15.08844092 50847,6917.868,95.437,540.753,538.713,0.0
53999.0,STARLINK-5079,PAYLOAD,2023-09-03 12:51:28,15.08841187,0.0001029,53.2182,15.793,83.7941,276.3168,0.00018263,2.62e-05,0.0,0 STARLINK-5079,1 53999U 22125AM  23246.53574434  .00002620  00000-0  18263-3 0  9992,2 53999  53.2182  15.7930 0001029  83.7941 276.3168 15.08841187 50929,6917.877,95.437,540.454,539.03,0.0
53999.0,STARLINK-5079,PAYLOAD,2023-09-04 11:06:52,15.08831344,0.0001283,53.2177,11.6291,84.4103,275.7036,-4.5028e-06,-3.59e-06,0.0,0 STARLINK-5079,1 53999U 22125AM  23247.46311111 -.00000359  00000-0 -45028-5 0  9996,2 53999  53.2177  11.6291 0001283  84.4103 275.7036 15.08831344 50996,6917.907,95.438,540.659,538.884,0.0
53999.0,STARLINK-5079,PAYLOAD,2023-09-04 17:28:25,15.08834867,0.0001302,53.2175,10.4399,84.1444,275.9696,4.0686e-05,3.6e-06,0.0,0 STARLINK-5079,1 53999U 22125AM  23247.72807059  .00000360  00000-0  40686-4 0  9990,2 53999  53.2175  10.4399 0001302  84.1444 275.9696 15.08834867 51108,6917.896,95.438,540.662,538.86,0.0
53999.0,STARLINK-5079,PAYLOAD,2023-09-05 10:57:39,15.0883935,0.000127,53.2176,7.1696,82.2682,277.8454,6.3671e-05,7.26e-06,0.0,0 STARLINK-5079,1 53999U 22125AM  23248.45670959  .00000726  00000-0  63671-4 0  9993,2 53999  53.2176   7.1696 0001270  82.2682 277.8454 15.08839350 51148,6917.882,95.438,540.626,538.869,0.0
53999.0,STARLINK-5079,PAYLOAD,2023-09-06 01:16:07,15.0884447,0.0001223,53.218,4.4925,84.4036,275.7096,0.00026974,4.008e-05,0.0,0 STARLINK-5079,1 53999U 22125AM  23249.05286681  .00004008  00000-0  26974-3 0  9996,2 53999  53.2180   4.4925 0001223  84.4036 275.7096 15.08844470 51309,6917.867,95.437,540.578,538.886,0.0
53999.0,STARLINK-5079,PAYLOAD,2023-09-06 09:13:03,15.0884443,0.0001247,53.2179,3.0059,85.3694,274.7441,0.0002411,3.552e-05,0.0,0 STARLINK-5079,1 53999U 22125AM  23249.38406763  .00003552  00000-0  24110-3 0  9990,2 53999  53.2179   3.0059 0001247  85.3694 274.7441 15.08844430 51282,6917.867,95.437,540.595,538.869,0.0
53999.0,STARLINK-5079,PAYLOAD,2023-09-06 17:09:58,15.08855274,0.0001181,53.2181,1.5186,89.9596,270.1532,0.0003053,4.576e-05,0.0,0 STARLINK-5079,1 53999U 22125AM  23249.71526071  .00004576  00000-0  30530-3 0  9992,2 53999  53.2181   1.5186 0001181  89.9596 270.1532 15.08855274 51332,6917.834,95.437,540.516,538.882,0.0
53999.0,STARLINK-5079,PAYLOAD,2023-09-07 09:03:50,15.08843461,9.81e-05,53.2195,358.5435,128.2881,231.8199,9.6409e-05,1.247e-05,0.0,0 STARLINK-5079,1 53999U 22125AM  23250.37766368  .00001247  00000-0  96409-4 0  9991,2 53999  53.2195 358.5435 0000981 128.2881 231.8199 15.08843461 51507,6917.87,95.437,540.413,539.056,0.0
53999.0,STARLINK-5079,PAYLOAD,2023-09-07 17:00:45,15.088485,0.0001057,53.2185,357.0587,91.7937,268.3176,9.711e-05,1.258e-05,0.0,0 STARLINK-5079,1 53999U 22125AM  23250.70886211  .00001258  00000-0  97110-4 0  9990,2 53999  53.2185 357.0587 0001057  91.7937 268.3176 15.08848500 51485,6917.854,95.437,540.451,538.988,0.0
53999.0,STARLINK-5079,PAYLOAD,2023-09-08 10:30:00,15.08842509,0.0001579,53.2165,353.7835,123.4348,236.6796,4.3568e-05,4.05e-06,0.0,0 STARLINK-5079,1 53999U 22125AM  23251.43750428  .00000405  00000-0  43568-4 0  9992,2 53999  53.2165 353.7835 0001579 123.4348 236.6796 15.08842509 51669,6917.873,95.437,540.83,538.645,0.0
53999.0,STARLINK-5079,PAYLOAD,2023-09-08 12:05:23,15.08839477,0.0001235,53.2179,353.49,95.715,264.3983,2.835e-05,1.63e-06,0.0,0 STARLINK-5079,1 53999U 22125AM  23251.50374783  .00000163  00000-0  28350-4 0  9999,2 53999  53.2179 353.4900 0001235  95.7150 264.3983 15.08839477 51605,6917.882,95.438,540.601,538.893,0.0
53999.0,STARLINK-5079,PAYLOAD,2023-09-09 10:20:47,15.08835117,0.0001328,53.2183,349.3289,98.013,262.1013,8.4987e-05,1.065e-05,0.0,0 STARLINK-5079,1 53999U 22125AM  23252.43111091  .00001065  00000-0  84987-4 0  9993,2 53999  53.2183 349.3289 0001328  98.0130 262.1013 15.08835117 51811,6917.895,95.438,540.679,538.842,0.0
53999.0,STARLINK-5079,PAYLOAD,2023-09-09 13:31:34,15.08842582,0.0001269,53.2181,348.7343,89.5013,270.6124,0.00018901,2.722e-05,0.0,0 STARLINK-5079,1 53999U 22125AM  23252.56358850  .00002722  00000-0  18901-3 0  9996,2 53999  53.2181 348.7343 0001269  89.5013 270.6124 15.08842582 51767,6917.872,95.437,540.615,538.86,0.0
53999.0,STARLINK-5079,PAYLOAD,2023-09-10 10:11:35,15.08824447,0.0001376,53.2179,344.8691,92.216,267.899,0.0007339,0.00011406,0.0,0 STARLINK-5079,1 53999U 22125AM  23253.42471799  .00011406  00000-0  73390-3 0  9992,2 53999  53.2179 344.8691 0001376  92.2160 267.8990 15.08824447 51961,6917.928,95.439,540.745,538.841,0.0
53999.0,STARLINK-5079,PAYLOAD,2023-09-10 13:22:20,15.08851625,0.0001252,53.2179,344.2743,91.3912,268.7224,0.00017979,2.576e-05,0.0,0 STARLINK-5079,1 53999U 22125AM  23253.55718399  .00002576  00000-0  17979-3 0  9995,2 53999  53.2179 344.2743 0001252  91.3912 268.7224 15.08851625 51914,6917.845,95.437,540.576,538.844,0.0
53999.0,STARLINK-5079,PAYLOAD,2023-09-10 14:57:43,15.08854541,0.0001247,53.2178,343.9769,92.0782,268.0353,0.00014621,2.041e-05,0.0,0 STARLINK-5079,1 53999U 22125AM  23253.62342244  .00002041  00000-0  14621-3 0  9993,2 53999  53.2178 343.9769 0001247  92.0782 268.0353 15.08854541 51998,6917.836,95.437,540.564,538.838,0.0
53999.0,STARLINK-5079,PAYLOAD,2023-09-10 22:54:39,15.08845468,0.0001247,53.2177,342.4899,89.4167,270.6968,0.00014117,1.96e-05,0.0,0 STARLINK-5079,1 53999U 22125AM  23253.95462607  .00001960  00000-0  14117-3 0  9994,2 53999  53.2177 342.4899 0001247  89.4167 270.6968 15.08845468 52048,6917.864,95.437,540.591,538.866,0.0
53999.0,STARLINK-5079,PAYLOAD,2023-09-11 10:02:22,15.08831163,0.0001386,53.2176,340.4094,88.9159,271.1992,-0.00013462,-2.429e-05,0.0,0 STARLINK-5079,1 53999U 22125AM  23254.41831247 -.00002429  00000-0 -13462-3 0  9991,2 53999  53.2176 340.4094 0001386  88.9159 271.1992 15.08831163 52119,6917.907,95.438,540.731,538.814,0.0
53999.0,STARLINK-5079,PAYLOAD,2023-09-11 13:13:08,15.0883335,0.0001531,53.2191,339.8146,83.2962,276.8204,-1.8373e-05,-5.8e-06,0.0,0 STARLINK-5079,1 53999U 22125AM  23254.55079479 -.00000580  00000-0 -18373-4 0  9990,2 53999  53.2191 339.8146 0001531  83.2962 276.8204 15.08833350 52060,6917.901,95.438,540.825,538.707,0.0
53999.0,STARLINK-5079,PAYLOAD,2023-09-11 14:48:31,15.08841158,0.0001359,53.2179,339.5167,85.5262,274.5886,4.49e-05,4.27e-06,0.0,0 STARLINK-5079,1 53999U 22125AM  23254.61703012  .00000427  00000-0  44900-4 0  9997,2 53999  53.2179 339.5167 0001359  85.5262 274.5886 15.08841158 52147,6917.877,95.437,540.682,538.802,0.0
